1 38025U          19305.63680556  .00000000  00000-0  00000-0 0 00000
2 38025 097.7110 40.3590 0000000 000.0000 126.6680 15.01920000000000
1 38025U          19306.00625000  .00000000  00000-0  00000-0 0 00000
2 38025 097.7110 40.7230 0000000 000.0000 321.6690 15.01920000000000
1 38025U          19306.27013889  .00000000  00000-0  00000-0 0 00000
2 38025 097.7120 40.9830 0000000 000.0000 306.6690 15.01920000000000
1 38025U          19306.73055556  .00000000  00000-0  00000-0 0 00000
2 38025 097.7120 41.4370 0000000 000.0000 272.9200 15.01920000000000
1 38025U          19307.01944444  .00000000  00000-0  00000-0 0 00000
2 38025 097.7130 41.7220 0000000 000.0000 032.9200 15.01920000000000
1 38025U          19307.39791667  .00000000  00000-0  00000-0 0 00000
2 38025 097.7130 42.0950 0000000 000.0000 276.6710 15.01920000000000
1 38025U          19307.63263889  .00000000  00000-0  00000-0 0 00000
2 38025 097.7130 42.3260 0000000 000.0000 104.1710 15.01920000000000
1 38025U          19308.02986111  .00000000  00000-0  00000-0 0 00000
2 38025 097.7140 42.7180 0000000 000.0000 089.1710 15.01920000000000
1 38025U          19308.25694444  .00000000  00000-0  00000-0 0 00000
2 38025 097.7140 42.9420 0000000 000.0000 235.4220 15.01920000000000
1 38025U          19308.59861111  .00000000  00000-0  00000-0 0 00000
2 38025 097.7150 43.2790 0000000 000.0000 280.4220 15.01920000000000
1 38025U          19308.98333333  .00000000  00000-0  00000-0 0 00000
2 38025 097.7150 43.6580 0000000 000.0000 197.9230 15.01920000000000
1 38025U          19309.35902778  .00000000  00000-0  00000-0 0 00000
2 38025 097.7160 44.0280 0000000 000.0000 066.6730 15.01920000000000
1 38025U          19309.61597222  .00000000  00000-0  00000-0 0 00000
2 38025 097.7160 44.2820 0000000 000.0000 014.1730 15.01920000000000
1 38025U          19310.01111111  .00000000  00000-0  00000-0 0 00000
2 38025 097.7170 44.6710 0000000 000.0000 347.9240 15.01920000000000
1 38025U          19310.27083333  .00000000  00000-0  00000-0 0 00000
2 38025 097.7170 44.9270 0000000 000.0000 310.4240 15.01920000000000
1 38025U          19310.72916667  .00000000  00000-0  00000-0 0 00000
2 38025 097.7180 45.3790 0000000 000.0000 265.4250 15.01920000000000
1 38025U          19310.95277778  .00000000  00000-0  00000-0 0 00000
2 38025 097.7180 45.5990 0000000 000.0000 032.9250 15.01920000000000
1 38025U          19311.35763889  .00000000  00000-0  00000-0 0 00000
2 38025 097.7180 45.9990 0000000 000.0000 059.1760 15.01920000000000
1 38025U          19311.61458333  .00000000  00000-0  00000-0 0 00000
2 38025 097.7190 46.2520 0000000 000.0000 006.6760 15.01920000000000
1 38025U          19311.97152778  .00000000  00000-0  00000-0 0 00000
2 38025 097.7190 46.6040 0000000 000.0000 134.1770 15.01914300000000
1 38025U          19312.17013889  .00000000  00000-0  00000-0 0 00000
2 38025 097.7190 46.7990 0000000 000.0000 126.6770 15.01914300000000
1 38025U          19312.58819444  .00000000  00000-0  00000-0 0 00000
2 38025 097.7200 47.2120 0000000 000.0000 224.1780 15.01914300000000
1 38025U          19312.81319444  .00000000  00000-0  00000-0 0 00000
2 38025 097.7200 47.4330 0000000 000.0000 359.1780 15.01914300000000
1 38025U          19313.27569444  .00000000  00000-0  00000-0 0 00000
2 38025 097.7210 47.8890 0000000 000.0000 336.6790 15.01914300000000
1 38025U          19313.51527778  .00000000  00000-0  00000-0 0 00000
2 38025 097.7210 48.1260 0000000 000.0000 190.4290 15.01914300000000
1 38025U          19313.89305556  .00000000  00000-0  00000-0 0 00000
2 38025 097.7220 48.4980 0000000 000.0000 070.4290 15.01914300000000
1 38025U          19314.16388889  .00000000  00000-0  00000-0 0 00000
2 38025 097.7220 48.7650 0000000 000.0000 092.9300 15.01914300000000
1 38025U          19314.48541667  .00000000  00000-0  00000-0 0 00000
2 38025 097.7220 49.0820 0000000 000.0000 029.1800 15.01914300000000
1 38025U          19314.82708333  .00000000  00000-0  00000-0 0 00000
2 38025 097.7230 49.4190 0000000 000.0000 074.1810 15.01914300000000
1 38025U          19315.17847222  .00000000  00000-0  00000-0 0 00000
2 38025 097.7230 49.7650 0000000 000.0000 171.6810 15.01914300000000
1 38025U          19315.51319444  .00000000  00000-0  00000-0 0 00000
2 38025 097.7240 50.0950 0000000 000.0000 179.1820 15.01914300000000
1 38025U          19315.97500000  .00000000  00000-0  00000-0 0 00000
2 38025 097.7240 50.5500 0000000 000.0000 152.9330 15.01914300000000
1 38025U          19316.29930556  .00000000  00000-0  00000-0 0 00000
2 38025 097.7240 50.8700 0000000 000.0000 104.1830 15.01914300000000
1 38025U          19316.57291667  .00000000  00000-0  00000-0 0 00000
2 38025 097.7250 51.1400 0000000 000.0000 141.6830 15.01914300000000
1 38025U          19316.89930556  .00000000  00000-0  00000-0 0 00000
2 38025 097.7250 51.4610 0000000 000.0000 104.1840 15.01914300000000
1 38025U          19317.24583333  .00000000  00000-0  00000-0 0 00000
2 38025 097.7260 51.8030 0000000 000.0000 175.4340 15.01914300000000
1 38025U          19317.63888889  .00000000  00000-0  00000-0 0 00000
2 38025 097.7260 52.1910 0000000 000.0000 137.9350 15.01914300000000
1 38025U          19317.95486111  .00000000  00000-0  00000-0 0 00000
2 38025 097.7260 52.5020 0000000 000.0000 044.1860 15.01914300000000
1 38025U          19318.20625000  .00000000  00000-0  00000-0 0 00000
2 38025 097.7270 52.7500 0000000 000.0000 321.6860 15.01914300000000
1 38025U          19318.59930556  .00000000  00000-0  00000-0 0 00000
2 38025 097.7270 53.1370 0000000 000.0000 284.1870 15.01914300000000
1 38025U          19318.89583333  .00000000  00000-0  00000-0 0 00000
2 38025 097.7270 53.4300 0000000 000.0000 085.4370 15.01914300000000
1 38025U          19318.93055556  .00000000  00000-0  00000-0 0 00000
2 38025 097.7270 53.4640 0000000 000.0000 272.9370 15.01914300000000
1 38025U          19319.29236111  .00000000  00000-0  00000-0 0 00000
2 38025 097.7280 53.8210 0000000 000.0000 066.6880 15.01914300000000
1 38025U          19319.57569444  .00000000  00000-0  00000-0 0 00000
2 38025 097.7280 54.1000 0000000 000.0000 156.6880 15.01914300000000
1 38025U          19319.81875000  .00000000  00000-0  00000-0 0 00000
2 38025 097.7280 54.3400 0000000 000.0000 029.1880 15.01914300000000
1 38025U          19320.19305556  .00000000  00000-0  00000-0 0 00000
2 38025 097.7290 54.7090 0000000 000.0000 250.4390 15.01914300000000
1 38025U          19320.56250000  .00000000  00000-0  00000-0 0 00000
2 38025 097.7290 55.0730 0000000 000.0000 085.4400 15.01914300000000
1 38025U          19320.86319444  .00000000  00000-0  00000-0 0 00000
2 38025 097.7290 55.3690 0000000 000.0000 269.1900 15.01914300000000
1 38025U          19321.15069444  .00000000  00000-0  00000-0 0 00000
2 38025 097.7300 55.6530 0000000 000.0000 021.6910 15.01914300000000
1 38025U          19321.51388889  .00000000  00000-0  00000-0 0 00000
2 38025 097.7300 56.0110 0000000 000.0000 182.9410 15.01914300000000
1 38025U          19321.92083333  .00000000  00000-0  00000-0 0 00000
2 38025 097.7310 56.4120 0000000 000.0000 220.4420 15.01914300000000
1 38025U          19322.23680556  .00000000  00000-0  00000-0 0 00000
2 38025 097.7310 56.7230 0000000 000.0000 126.6920 15.01914300000000
1 38025U          19322.61666667  .00000000  00000-0  00000-0 0 00000
2 38025 097.7310 57.0980 0000000 000.0000 017.9430 15.01914300000000
1 38025U          19322.82569444  .00000000  00000-0  00000-0 0 00000
2 38025 097.7310 57.3040 0000000 000.0000 066.6930 15.01914300000000
1 38025U          19323.20486111  .00000000  00000-0  00000-0 0 00000
2 38025 097.7320 57.6780 0000000 000.0000 314.1940 15.01914300000000
1 38025U          19323.63819444  .00000000  00000-0  00000-0 0 00000
2 38025 097.7320 58.1050 0000000 000.0000 134.1950 15.01914300000000
1 38025U          19323.85069444  .00000000  00000-0  00000-0 0 00000
2 38025 097.7320 58.3140 0000000 000.0000 201.6950 15.01914300000000
1 38025U          19324.26597222  .00000000  00000-0  00000-0 0 00000
2 38025 097.7330 58.7240 0000000 000.0000 284.1960 15.01914300000000
1 38025U          19324.48055556  .00000000  00000-0  00000-0 0 00000
2 38025 097.7330 58.9350 0000000 000.0000 002.9460 15.01914300000000
1 38025U          19324.83680556  .00000000  00000-0  00000-0 0 00000
2 38025 097.7330 59.2860 0000000 000.0000 126.6970 15.01914300000000
1 38025U          19325.29861111  .00000000  00000-0  00000-0 0 00000
2 38025 097.7340 59.7420 0000000 000.0000 100.4470 15.01914300000000
1 38025U          19325.55000000  .00000000  00000-0  00000-0 0 00000
2 38025 097.7340 59.9890 0000000 000.0000 017.9480 15.01914300000000
1 38025U          19325.87083333  .00000000  00000-0  00000-0 0 00000
2 38025 097.7340 60.3060 0000000 000.0000 310.4480 15.01914300000000
1 38025U          19325.89583333  .00000000  00000-0  00000-0 0 00000
2 38025 097.7340 60.3300 0000000 000.0000 085.4480 15.01914300000000
1 38025U          19326.18194444  .00000000  00000-0  00000-0 0 00000
2 38025 097.7350 60.6120 0000000 000.0000 190.4490 15.01914300000000
1 38025U          19326.56875000  .00000000  00000-0  00000-0 0 00000
2 38025 097.7350 60.9940 0000000 000.0000 119.1990 15.01914300000000
1 38025U          19326.86944444  .00000000  00000-0  00000-0 0 00000
2 38025 097.7350 61.2900 0000000 000.0000 302.9500 15.01914300000000
1 38025U          19327.18541667  .00000000  00000-0  00000-0 0 00000
2 38025 097.7360 61.6020 0000000 000.0000 209.2000 15.01914300000000
1 38025U          19327.63611111  .00000000  00000-0  00000-0 0 00000
2 38025 097.7360 62.0460 0000000 000.0000 122.9510 15.01914300000000
1 38025U          19327.92291667  .00000000  00000-0  00000-0 0 00000
2 38025 097.7360 62.3290 0000000 000.0000 231.7020 15.01914300000000
1 38025U          19328.30972222  .00000000  00000-0  00000-0 0 00000
2 38025 097.7370 62.7100 0000000 000.0000 160.4520 15.01914300000000
